#dP2024 12  8  6  0  0.00000000      96 __u+U IGS20 EXT  IAC
## 2344  21600.00000000   900.00000000 60652 0.2500000000000
+   51   G02G03G04G05G06G08G09G10G11G12G13G14G15G16G17G18G19
+        G20G21G22G23G24G25G26G27G28G29G30G31G32R01R02R03R04
+        R05R07R08R09R11R12R14R15R16R17R18R19R20R21R22R24R26
+          0  0  0  0  0  0  0  0  0  0  0  0  0  0  0  0  0
+          0  0  0  0  0  0  0  0  0  0  0  0  0  0  0  0  0
++         8  7  7  8  7  7  8  7  7  7  8  7  8  7  7  7  7
++         8  8  7  7  8  7  7  7  7  8  7  7  7 10  9  7 10
++         8  9  8  9  7  8  7  8  7  8  8  9  9  8  9  9  9
++         0  0  0  0  0  0  0  0  0  0  0  0  0  0  0  0  0
++         0  0  0  0  0  0  0  0  0  0  0  0  0  0  0  0  0
%c M  cc GPS ccc cccc cccc cccc cccc ccccc ccccc ccccc ccccc
%c cc cc ccc ccc cccc cccc cccc cccc ccccc ccccc ccccc ccccc
%f  0.0000000  0.000000000  0.00000000000  0.000000000000000
%f  0.0000000  0.000000000  0.00000000000  0.000000000000000
%i    0    0    0    0      0      0      0      0         0
%i    0    0    0    0      0      0      0      0         0
/* IAC                                ULTRA-RAPID PREDICTION
/* S/V CLOCKS ARE ALIGNED TO GNSS TIME                      
/* G:C1WC2W R:C1PC2P E:C1XC5X C:C2IC6I J:C1CC2S             
/* PCV:IGS20_2317 OL/AL:FES2004  NONE     YN ORB:CoN CLK:CoN
*  2024 12 09  2  0  0.00000000
PG02  18762.450572   6875.393907  18149.618403   -296.373651
PG03  18404.522226  -5974.464259  17977.576792    620.067088
PG04  26411.500512    296.662309  -3481.446746    492.781229
PG05 -11658.504111  -9609.905449 -22017.387022   -195.443568
PG06  -3998.383893 -24193.311282  10129.227362    -29.851508
PG08  24658.979369   6610.078671  -8250.490176    433.912409
PG09  22801.449582  -7247.449740 -11695.231860    478.963492
PG10  -8785.556498  23361.859038   8791.614366   -226.906534
PG11 -12322.886149 -23386.804856  -2858.398390   -752.389433
PG12 -17877.943084   1056.089443  19313.496492   -557.187511
PG13 -18421.854947 -13607.031535 -13886.773842    689.236627
PG14  11933.360451 -23094.148109   4845.008027    556.345652
PG15 -25169.611559  -3841.201118  -8341.624211    237.320693
PG16   7205.651093  14678.944489 -21196.136937   -108.051359
PG17   8923.328593 -13740.388230  21356.039492    526.937391
PG18 -10216.126904  12170.420667 -21212.082268   -660.482884
PG19  -3163.808683 -15484.417018  21266.430636    571.855582
PG20  -4338.661647 -19972.248507 -16953.972767    368.048897
PG21  19390.236996  13444.968261  13595.594348     95.433924
PG22   6839.359018 -22648.431164  12766.804815    -85.103514
PG23 -16701.261203  19791.732580  -5274.919538    379.685894
PG24 -19287.243612  -9177.325771  15566.921192   -474.938939
PG25 -18830.046667  14576.223413  11128.464927    498.296050
PG26   -123.039362  22295.421903 -14318.717530     -1.970988
PG27  16566.318883  12806.621495 -16893.023983    -34.334767
PG28   3214.133956  23593.133976  11751.934869   -502.771562
PG29 -23394.021418   4834.372743 -11784.687279   -557.481350
PG30   3553.775065 -20274.633418 -16490.076033   -265.312786
PG31   9992.971129  24317.431301   1641.809853   -220.331904
PG32  -3989.287233  14945.675015  21798.545035   -561.992888
PR01   -524.636141 -11221.367150 -22900.940977    107.116970
PR02 -17083.395239  -4001.518278 -18437.999432    -39.225922
PR03 -24597.833149   5744.258293  -3242.997178    112.873861
PR04 -18526.151181  11592.194328  13163.996144    267.575869
PR05  -2570.876305  11534.638975  22610.237303    141.907439
PR07  24682.437525  -5867.850638   2971.698456     96.583982
PR08  18303.400187 -11847.453096 -13217.557485     -6.141057
PR09   7819.725286  12899.657563 -20578.289898    225.140880
PR11  10394.339528 -19911.731948 -12066.778454      5.151234
PR12   2014.038914 -24341.313303   7399.503890     48.185948
PR14 -12081.588718   5539.028830  21781.495362     27.386573
PR15 -10067.327437  20976.260849  10475.433088     73.348576
PR16  -2098.230278  24391.814177  -7221.677156     31.456920
PR17 -17292.222642  -5063.396485 -18059.659594    146.887134
PR18  -6463.502890   8401.451626 -23179.082223    175.859409
PR19   5495.124749  17348.676575 -17863.281627   -301.244848
PR20  18107.151869  17914.674802   1721.641327   -122.991665
PR21  17607.046172   6099.849771  17413.007245   -157.972829
PR22   5989.396298  -9475.737390  22944.444361    -35.404548
PR24 -19089.336270 -16796.204471  -2133.754143    -83.308345
PR26  19446.663949 -11594.879724 -11714.900456   -132.917938
*  2024 12 09  2 15  0.00000000
PG02  19685.094405   8517.081885  16373.172010   -296.365744
PG03  17329.313550  -4082.617804  19506.395397    620.075346
PG04  26631.292098    539.438063   -636.253680    492.786832
PG05 -10431.006576 -11735.047117 -21589.944929   -195.444628
PG06  -3273.133955 -23112.699720  12632.898798    -29.877687
PG08  23598.378366   6836.096203 -10774.380667    433.920686
PG09  23980.833527  -7018.228624  -9194.574642    478.978218
PG10  -9386.257557  23959.887437   6033.261668   -226.920291
PG11 -12181.326475 -23639.499660     -2.261272   -752.389969
PG12 -16596.001188   -894.492616  20421.875064   -557.189665
PG13 -16760.836705 -13454.319733 -15993.361696    689.237915
PG14  12412.198820 -23250.346007   2044.731314    556.352594
PG15 -24178.946953  -4234.192498 -10848.810385    237.324787
PG16   5740.334211  16467.970740 -20253.939241   -108.042674
PG17  11208.266958 -13462.650436  20434.999004    526.923291
PG18 -11378.627612   9996.001527 -21768.490818   -660.482632
PG19   -703.086577 -15162.680865  21676.639695    571.859382
PG20  -3496.983620 -21618.422926 -15042.691483    368.048587
PG21  20015.100898  14630.028922  11291.117492     95.432995
PG22   7750.129546 -23539.202474  10357.518705    -85.105832
PG23 -16485.072879  19025.189505  -8049.906403    379.692873
PG24 -20059.800016 -10743.900906  13552.449163   -474.936336
PG25 -18302.116475  13180.813072  13458.456448    498.295721
PG26  -1064.911958  23506.722924 -12113.053338     -1.983485
PG27  14603.759881  12881.418183 -18555.141449    -34.334541
PG28   2300.799839  22412.404133  14049.935058   -502.781415
PG29 -24559.983957   4510.137856  -9274.171659   -557.478582
PG30   4692.015210 -18589.045251 -18121.864274   -265.305536
PG31   9550.901422  24113.475380   4476.477024   -220.331284
PG32  -6405.842615  14836.215930  21267.359634   -561.987598
PR01   2083.934096 -12209.232221 -22298.419089    107.118158
PR02 -14773.117868  -4648.863298 -20199.985900    -39.225767
PR03 -23976.449361   5703.980224  -6397.489331    112.874370
PR04 -19858.747738  12186.427461  10383.497149    267.577340
PR05  -5159.731106  12413.285513  21680.468854    141.907929
PR07  24101.959592  -5852.522897   6126.224689     96.584764
PR08  19652.201414 -12448.247906 -10455.875979     -6.140987
PR09   7464.936203  15315.173166 -19001.638604    225.142880
PR11   9966.741894 -18311.712197 -14679.029799      5.150364
PR12   2026.814232 -25071.960549   4301.274952     48.186379
PR14 -11545.836633   2858.190173  22573.039388     27.386638
PR15  -9674.189212  19566.506745  13217.692622     73.348270
PR16  -2083.952027  25106.871038  -4107.853397     31.457044
PR17 -18938.864877  -6367.645949 -15867.434333    146.890155
PR18  -8573.924667   6463.010436 -23112.191264    175.861178
PR19   3921.650397  15629.388630 -19763.479422   -301.246010
PR20  18268.501981  17765.463511  -1519.958199   -122.992194
PR21  19184.050135   7351.298426  15107.944714   -157.975690
PR22   8026.778138  -7511.903403  23049.861070    -35.415625
PR24 -19240.141136 -16729.800350   1076.920452    -83.309690
PR26  20602.837032 -12145.211086  -8829.337137   -132.917639
EOF
